{
  "norad_id": 56698,
  "name": "STARLINK-30068",
  "history": [
    {
      "epoch": "2026-03-28T21:07:39.494208Z",
      "apogee_km": 484.10108236741235,
      "perigee_km": 481.93570172568343,
      "latitude_deg": 7.155090972741215e-06,
      "longitude_deg": 8.2939312800962,
      "height_km": 482.7593831839375,
      "semi_major_axis_km": 6861.155392046548,
      "eccentricity": 0.0001578,
      "inclination_deg": 43.0018,
      "raan_deg": 151.5029,
      "arg_perigee_deg": 271.9086,
      "mean_anomaly_deg": 88.1585,
      "mean_motion_rev_day": 15.27590254
    }
  ]
}